CCSDS_OMM_VERS,COMMENT,CREATION_DATE,ORIGINATOR,OBJECT_NAME,OBJECT_ID,CENTER_NAME,REF_FRAME,TIME_SYSTEM,MEAN_ELEMENT_THEORY,EPOCH,MEAN_MOTION,ECCENTRICITY,INCLINATION,RA_OF_ASC_NODE,ARG_OF_PERICENTER,MEAN_ANOMALY,EPHEMERIS_TYPE,CLASSIFICATION_TYPE,NORAD_CAT_ID,ELEMENT_SET_NO,REV_AT_EPOCH,BSTAR,MEAN_MOTION_DOT,MEAN_MOTION_DDOT,SEMIMAJOR_AXIS,PERIOD,APOAPSIS,PERIAPSIS,OBJECT_TYPE,RCS_SIZE,COUNTRY_CODE,LAUNCH_DATE,SITE,DECAY_DATE,FILE,GP_ID,TLE_LINE0,TLE_LINE1,TLE_LINE2,NORAD_KEY,JCAT,DeepCat,Satcat,Piece,Active,Type,Name,LDate,Parent,Owner,State,SDate,ExpandedStatus,DDate,ODate,Period,Perigee,PF,Apogee,AF,Inc,IF,OpOrbit,SATCAT_KEY,DENSITY_SCORE
3.0,GENERATED VIA SPACE-TRACK.ORG API,2026-05-06T14:56:52,18 SPCS,INTELSAT 9 (PAS 9),2000-043A,EARTH,TEME,UTC,SGP4,2026-05-06T11:38:49.583904,0.9940255,0.000153,10.2865,49.5794,282.5487,176.4606,0,U,26451,999,4369,0.0,-2.06e-06,0.0,42410.184,1448.655,36038.538,36025.56,PAYLOAD,LARGE,US,2000-07-28,SEAL,,5177591,322307818,0 INTELSAT 9 (PAS 9),1 26451U 00043A   26126.48529611 -.00000206  00000-0  00000+0 0  9996,2 26451  10.2865  49.5794 0001530 282.5487 176.4606  0.99402550 43691,26451,S26451,-,26451,2000-043A,P,P,Intelsat IS-9,2000 Jul 28,S26452,SESINTU,US,2000 Jul 28 2352,In Earth orbit,-,2026 May  4 ,1448.64,36024, ,36038, ,10.28, ,GEO/ID,26451,1.7688733097498905
3.0,GENERATED VIA SPACE-TRACK.ORG API,2026-05-06T10:08:52,18 SPCS,AMC-2 (GE-2),1997-002A,EARTH,TEME,UTC,SGP4,2026-05-06T02:43:49.969056,0.99474096,3.666e-05,10.7309,45.5872,89.2475,100.3435,0,U,24713,999,10700,0.0,-2.59e-06,0.0,42389.846,1447.613,36013.265,36010.157,PAYLOAD,LARGE,SES,1997-01-30,FRGUI,,5176958,322265708,0 AMC-2 (GE-2),1 24713U 97002A   26126.11377279 -.00000259  00000-0  00000-0 0  9996,2 24713  10.7309  45.5872 0000367  89.2475 100.3435  0.99474096107003,24713,S24713,-,24713,1997-002A,P,P,AMC 2,1997 Jan 30,S24716,SESSAP,US,1997 Jan 30 2224,In Earth orbit,-,2026 May  5 ,1447.609,36010, ,36012, ,10.73, ,GEO/ID,24713,1.7693540936502377
3.0,GENERATED VIA SPACE-TRACK.ORG API,2026-05-06T14:56:52,18 SPCS,APSTAR 1,1994-043A,EARTH,TEME,UTC,SGP4,2026-05-06T11:18:06.768288,0.99372774,0.000444,13.2849,18.2029,21.0923,69.9738,0,U,23185,999,4466,0.0,3.3e-07,0.0,42418.656,1449.089,36059.354,36021.687,PAYLOAD,LARGE,PRC,1994-07-21,XSC,,5177498,322305590,0 APSTAR 1,1 23185U 94043A   26126.47091167  .00000033  00000-0  00000+0 0  9996,2 23185  13.2849  18.2029 0004440  21.0923  69.9738  0.99372774 44669,23185,S23185,-,23185,1994-043A,P,P,Zhongxing 5E,1994 Jul 21,S23186,CHISAE,CN,1994 Jul 21 1118?,In Earth orbit,-,2026 May  4 ,1449.087,36021, ,36059, ,13.28, ,GEO/ID,23185,1.7694800923741982
3.0,GENERATED VIA SPACE-TRACK.ORG API,2026-05-06T14:56:52,18 SPCS,COSMOS 2085,1990-061A,EARTH,TEME,UTC,SGP4,2026-05-06T13:40:29.461152,1.00264289,0.0014095,12.7108,336.7894,30.6697,133.5531,0,U,20693,999,13108,0.0,-6.7e-07,0.0,42166.833,1436.204,35848.133,35729.264,PAYLOAD,LARGE,CIS,1990-07-18,TTMTR,,5177420,322303619,0 COSMOS 2085,1 20693U 90061A   26126.56978543 -.00000067  00000-0  00000+0 0  9993,2 20693  12.7108 336.7894 0014095  30.6697 133.5531  1.00264289131087,20693,S20693,-,20693,1990-061A,P,P,Kosmos-2085,1990 Jul 18,S20696,VVKOV,SU,1990 Jul 19 0425?,In Earth orbit,-,2026 May  5 ,1436.206,35729, ,35848, ,12.71, ,GEO/I,20693,1.7699676713107249
3.0,GENERATED VIA SPACE-TRACK.ORG API,2026-05-06T14:56:52,18 SPCS,CHINASAT 20,2003-052A,EARTH,TEME,UTC,SGP4,2026-05-06T12:59:55.733856,0.99110615,0.0002396,10.3782,50.2912,122.5349,102.302,0,U,28082,999,8197,0.0,4.7e-07,0.0,42493.424,1452.922,36125.47,36105.108,PAYLOAD,LARGE,PRC,2003-11-14,XSC,,5177627,322308828,0 CHINASAT 20,1 28082U 03052A   26126.54161729  .00000047  00000-0  00000+0 0  9992,2 28082  10.3782  50.2912 0002396 122.5349 102.3020  0.99110615 81973,28082,S28082,-,28082,2003-052A,P,P,Zhongxing 20,2003 Nov 14,S28083,JHB,CN,2003 Nov 14 1625,In Earth orbit,-,2026 May  4 ,1452.932,36105, ,36125, ,10.37, ,GEO/ID,28082,1.7732889454029928
3.0,GENERATED VIA SPACE-TRACK.ORG API,2026-05-06T14:46:56,18 SPCS,ELEKTRO-L,2011-001A,EARTH,TEME,UTC,SGP4,2026-05-06T07:33:28.395072,1.00158377,0.0004392,9.5925,54.9239,21.9707,166.5795,0,U,37344,999,5606,0.0,-1.4e-06,0.0,42196.554,1437.723,35836.952,35799.887,PAYLOAD,LARGE,CIS,2011-01-20,TTMTR,,5177111,322296199,0 ELEKTRO-L,1 37344U 11001A   26126.31491198 -.00000140  00000-0  00000+0 0  9992,2 37344   9.5925  54.9239 0004392  21.9707 166.5795  1.00158377 56067,37344,S37344,-,37344,2011-001A,P,P,Elektro-L No. 1,2011 Jan 20,S37345,RGMS/NPOLO,RU,2011 Jan 20 2128,In Earth orbit,-,2026 May  5 ,1437.72,35799, ,35836, ,9.59, ,GEO/ID,37344,1.7735747725852427
3.0,GENERATED VIA SPACE-TRACK.ORG API,2026-05-06T14:56:52,18 SPCS,AMC-7 (GE-7),2000-054B,EARTH,TEME,UTC,SGP4,2026-05-06T13:15:38.673216,0.99135678,0.0003529,6.8116,70.7497,100.0297,84.3431,0,U,26495,999,9355,0.0,-6.3e-07,0.0,42486.262,1452.555,36123.12,36093.133,PAYLOAD,LARGE,SES,2000-09-14,FRGUI,,5177593,322307341,0 AMC-7 (GE-7),1 26495U 00054B   26126.55253094 -.00000063  00000-0  00000+0 0  9994,2 26495   6.8116  70.7497 0003529 100.0297  84.3431  0.99135678 93555,26495,S26495,-,26495,2000-054B,P,P,AMC 7,2000 Sep 14,S26497,SESSAP,US,2000 Sep 14 2331,In Earth orbit,-,2026 May  4 ,1452.567,36093, ,36123, ,6.81, ,GEO/ID,26495,1.7749414873232574
3.0,GENERATED VIA SPACE-TRACK.ORG API,2026-05-06T14:56:52,18 SPCS,HISPASAT 1B,1993-048A,EARTH,TEME,UTC,SGP4,2026-05-06T08:06:00.080352,0.9972539,0.0008299,13.6914,13.4089,352.6652,359.1657,0,U,22723,999,11941,0.0,1.9e-07,0.0,42318.605,1443.965,35975.59,35905.35,PAYLOAD,LARGE,SPN,1993-07-22,FRGUI,,5177485,322305431,0 HISPASAT 1B,1 22723U 93048A   26126.33750093  .00000019  00000-0  00000+0 0  9996,2 22723  13.6914  13.4089 0008299 352.6652 359.1657  0.99725390119410,22723,S22723,-,22723,1993-048A,P,P,Hispasat 1B,1993 Jul 22,S22726,HISP,E,1993 Jul 22 2319,In Earth orbit,-,2026 May  4 ,1443.973,35904, ,35977, ,13.69, ,GEO/ID,22723,1.7749775654725377
3.0,GENERATED VIA SPACE-TRACK.ORG API,2026-05-06T10:08:52,18 SPCS,INTELSAT 501,1981-050A,EARTH,TEME,UTC,SGP4,2026-05-06T00:46:01.271424,0.98850179,0.00034276,11.0357,324.947,320.7882,226.9195,0,U,12474,999,13725,0.0,-6.2e-07,0.0,42568.028,1456.75,36204.484,36175.303,PAYLOAD,LARGE,ITSO,1981-05-23,AFETR,,5176958,322261970,0 INTELSAT 501,1 12474U 81050A   26126.03195916 -.00000062  00000-0  00000-0 0  9992,2 12474  11.0357 324.9470 0003428 320.7882 226.9195  0.98850179137252,12474,S12474,-,12474,1981-050A,P,P,INTELSAT 501,1981 May 23,S12497,SESINTU,US,1981 May 23 2309,In Earth orbit,-,2026 May  5 ,1456.746,36175, ,36204, ,11.04, ,GEO/ID,12474,1.7757972892806502
3.0,GENERATED VIA SPACE-TRACK.ORG API,2026-05-06T14:46:56,18 SPCS,TELECOM 1B,1985-035B,EARTH,TEME,UTC,SGP4,2026-05-06T11:09:58.953024,1.00350185,0.0002848,10.2061,321.1935,5.3384,10.2878,0,U,15678,999,13660,0.0,-2.97e-06,0.0,42142.768,1434.975,35776.635,35752.631,PAYLOAD,LARGE,FR,1985-05-08,FRGUI,,5177280,322300362,0 TELECOM 1B,1 15678U 85035B   26126.46526566 -.00000297  00000-0  00000+0 0  9993,2 15678  10.2061 321.1935 0002848   5.3384  10.2878  1.00350185136603,15678,S15678,-,15678,1985-035B,P,P,Telecom 1B,1985 May  8,S15679,ORANGE,F,1985 May  8 0136,In Earth orbit,-,2026 May  4 ,1434.965,35752, ,35776, ,10.21, ,GEO/ID,15678,1.7763288826267536
3.0,GENERATED VIA SPACE-TRACK.ORG API,2026-05-06T14:56:52,18 SPCS,PALAPA B4,1992-027A,EARTH,TEME,UTC,SGP4,2026-05-06T11:24:58.426272,0.99928957,0.00033,13.1983,17.6009,2.5186,100.495,0,U,21964,999,4677,0.0,-1.2e-06,0.0,42261.114,1441.024,35896.925,35869.033,PAYLOAD,LARGE,INDO,1992-05-14,AFETR,,5177462,322304146,0 PALAPA B4,1 21964U 92027A   26126.47567623 -.00000120  00000-0  00000+0 0  9992,2 21964  13.1983  17.6009 0003300   2.5186 100.4950  0.99928957 46771,21964,S21964,-,21964,1992-027A,P,P,Palapa B4,1992 May 14,S21966,TELK,ID,1992 May 14 0201?,In Earth orbit,-,2026 May  4 ,1441.019,35868, ,35896, ,13.2, ,GEO/ID,21964,1.779431235793338
3.0,GENERATED VIA SPACE-TRACK.ORG API,2026-05-06T14:56:52,18 SPCS,RADUGA 21,1987-100A,EARTH,TEME,UTC,SGP4,2026-05-06T12:36:12.387168,1.00362332,0.0001121,11.3661,325.5709,317.6029,28.4335,0,U,18631,999,14066,0.0,-1.4e-06,0.0,42139.367,1434.801,35765.956,35756.509,PAYLOAD,LARGE,CIS,1987-12-10,TTMTR,,5177386,322302201,0 RADUGA 21,1 18631U 87100A   26126.52514337 -.00000140  00000-0  00000+0 0  9997,2 18631  11.3661 325.5709 0001121 317.6029  28.4335  1.00362332140665,18631,S18631,-,18631,1987-100A,P,P,Raduga,1987 Dec 10,S18634,VVKOV,SU,1987 Dec 10 1807?,In Earth orbit,-,2026 May  5 ,1434.8,35756, ,35765, ,11.37, ,GEO/ID,18631,1.7862604824621977
3.0,GENERATED VIA SPACE-TRACK.ORG API,2026-05-06T14:46:56,18 SPCS,COSMOS 1700,1985-102A,EARTH,TEME,UTC,SGP4,2026-05-06T13:41:04.003008,1.00317173,0.0003628,9.7821,319.1304,241.1529,305.8004,0,U,16199,999,15125,0.0,-1.23e-06,0.0,42152.013,1435.447,35789.171,35758.585,PAYLOAD,LARGE,CIS,1985-10-25,TTMTR,,5177284,322300918,0 COSMOS 1700,1 16199U 85102A   26126.57018522 -.00000123  00000-0  00000+0 0  9995,2 16199   9.7821 319.1304 0003628 241.1529 305.8004  1.00317173151256,16199,S16199,-,16199,1985-102A,P,P,Kosmos-1700,1985 Oct 25,S16214,VVKOV,SU,1985 Oct 25 2224?,In Earth orbit,-,2026 May  5 ,1435.447,35758, ,35789, ,9.78, ,GEO/ID,16199,1.7864947495302181
3.0,GENERATED VIA SPACE-TRACK.ORG API,2026-05-06T10:08:52,18 SPCS,AMC-9 (GE-12),2003-024A,EARTH,TEME,UTC,SGP4,2026-05-06T01:16:50.813760,0.99033121,0.00187955,7.8159,66.2134,347.2794,215.3163,0,U,27820,999,8357,0.0,-2.6e-07,0.0,42515.589,1454.059,36217.364,36057.544,PAYLOAD,LARGE,SES,2003-06-06,TTMTR,,5176958,322266334,0 AMC-9 (GE-12),1 27820U 03024A   26126.05336590 -.00000026  00000-0  00000-0 0  9995,2 27820   7.8159  66.2134 0018795 347.2794 215.3163  0.99033121 83571,27820,S27820,-,27820,2003-024A,P,P,AMC 9,2003 Jun  6,S28998,SESSAP,US,2003 Jun  7 0709,In Earth orbit,-,2026 May  4 ,1454.067,36057, ,36217, ,7.81, ,GEO/ID,27820,1.7895194622226571
